{
  "type": "FeatureCollection",
  "features": [
    {
      "type": "Feature",
      "properties": {
        "norad_id": 29268,
        "name": "ARIRANG-2 (KOMPSAT-2)",
        "group": "resource",
        "lat": 80.38333824164734,
        "lon": 124.82191433437686,
        "alt_km": 679.34530772782,
        "timestamp": "2025-12-16T19:34:23.921493+00:00",
        "meta_object_name": "ARIRANG-2 (KOMPSAT-2)",
        "meta_object_id": "2006-031A",
        "meta_epoch": "2025-12-16T00:12:13.436640",
        "meta_mean_motion": 14.64497764,
        "meta_eccentricity": 0.00133533,
        "meta_inclination": 97.8262,
        "meta_ra_of_asc_node": 178.3218,
        "meta_arg_of_pericenter": 298.12,
        "meta_mean_anomaly": 213.7654,
        "meta_ephemeris_type": 0,
        "meta_classification_type": "U",
        "meta_norad_cat_id": 29268,
        "meta_element_set_no": 999,
        "meta_rev_at_epoch": 3466,
        "meta_bstar": 0.00010592181,
        "meta_mean_motion_dot": 5.17e-06,
        "meta_mean_motion_ddot": 0,
        "tle_line1": "1 29268U 06031A   25350.00848885  .00000517  00000+0  10592-3 0  9995",
        "tle_line2": "2 29268  97.8262 178.3218 0013353 298.1200 213.7654 14.64497764 34669"
      },
      "geometry": {
        "type": "Point",
        "coordinates": [
          124.82191433437686,
          80.38333824164734
        ]
      }
    },
    {
      "type": "Feature",
      "properties": {
        "norad_id": 29709,
        "name": "LAPAN-TUBSAT",
        "group": "resource",
        "lat": -30.57805370833335,
        "lon": -14.100855620184849,
        "alt_km": 617.9228579053097,
        "timestamp": "2025-12-16T19:34:23.921504+00:00",
        "meta_object_name": "LAPAN-TUBSAT",
        "meta_object_id": "2007-001A",
        "meta_epoch": "2025-12-15T22:41:55.980384",
        "meta_mean_motion": 14.85679591,
        "meta_eccentricity": 0.00135662,
        "meta_inclination": 98.1259,
        "meta_ra_of_asc_node": 340.1685,
        "meta_arg_of_pericenter": 64.8879,
        "meta_mean_anomaly": 295.3741,
        "meta_ephemeris_type": 0,
        "meta_classification_type": "U",
        "meta_norad_cat_id": 29709,
        "meta_element_set_no": 999,
        "meta_rev_at_epoch": 2394,
        "meta_bstar": 0.00017446227,
        "meta_mean_motion_dot": 1.457e-05,
        "meta_mean_motion_ddot": 0,
        "tle_line1": "1 29709U 07001A   25349.94578681  .00001457  00000+0  17446-3 0  9997",
        "tle_line2": "2 29709  98.1259 340.1685 0013566  64.8879 295.3741 14.85679591 23947"
      },
      "geometry": {
        "type": "Point",
        "coordinates": [
          -14.100855620184849,
          -30.57805370833335
        ]
      }
    },
    {
      "type": "Feature",
      "properties": {
        "norad_id": 31113,
        "name": "HAIYANG-1B",
        "group": "resource",
        "lat": 46.14548965096444,
        "lon": 163.6985168373606,
        "alt_km": 787.3622769471758,
        "timestamp": "2025-12-16T19:34:23.921514+00:00",
        "meta_object_name": "HAIYANG-1B",
        "meta_object_id": "2007-010A",
        "meta_epoch": "2025-12-15T22:48:59.283360",
        "meta_mean_motion": 14.30966132,
        "meta_eccentricity": 0.00141214,
        "meta_inclination": 98.3317,
        "meta_ra_of_asc_node": 334.0962,
        "meta_arg_of_pericenter": 28.9264,
        "meta_mean_anomaly": 331.2699,
        "meta_ephemeris_type": 0,
        "meta_classification_type": "U",
        "meta_norad_cat_id": 31113,
        "meta_element_set_no": 999,
        "meta_rev_at_epoch": 97442,
        "meta_bstar": 6.2067386e-05,
        "meta_mean_motion_dot": 1.22e-06,
        "meta_mean_motion_ddot": 0,
        "tle_line1": "1 31113U 07010A   25349.95068615  .00000122  00000+0  62067-4 0  9999",
        "tle_line2": "2 31113  98.3317 334.0962 0014121  28.9264 331.2699 14.30966132974423"
      },
      "geometry": {
        "type": "Point",
        "coordinates": [
          163.6985168373606,
          46.14548965096444
        ]
      }
    },
    {
      "type": "Feature",
      "properties": {
        "norad_id": 31598,
        "name": "COSMO-SKYMED 1",
        "group": "resource",
        "lat": 71.62506128194937,
        "lon": 151.5867446983241,
        "alt_km": 572.0031940253784,
        "timestamp": "2025-12-16T19:34:23.921525+00:00",
        "meta_object_name": "COSMO-SKYMED 1",
        "meta_object_id": "2007-023A",
        "meta_epoch": "2025-12-15T23:58:50.708928",
        "meta_mean_motion": 14.95790824,
        "meta_eccentricity": 0.0001466,
        "meta_inclination": 97.8834,
        "meta_ra_of_asc_node": 175.4194,
        "meta_arg_of_pericenter": 88.9185,
        "meta_mean_anomaly": 271.2204,
        "meta_ephemeris_type": 0,
        "meta_classification_type": "U",
        "meta_norad_cat_id": 31598,
        "meta_element_set_no": 999,
        "meta_rev_at_epoch": 239,
        "meta_bstar": 0.00032306812,
        "meta_mean_motion_dot": 3.545e-05,
        "meta_mean_motion_ddot": 0,
        "tle_line1": "1 31598U 07023A   25349.99919802  .00003545  00000+0  32307-3 0  9992",
        "tle_line2": "2 31598  97.8834 175.4194 0001466  88.9185 271.2204 14.95790824  2395"
      },
      "geometry": {
        "type": "Point",
        "coordinates": [
          151.5867446983241,
          71.62506128194937
        ]
      }
    },
    {
      "type": "Feature",
      "properties": {
        "norad_id": 31698,
        "name": "TERRASAR-X",
        "group": "resource",
        "lat": 70.05921280353816,
        "lon": -24.991887567122678,
        "alt_km": 500.506450548035,
        "timestamp": "2025-12-16T19:34:23.921535+00:00",
        "meta_object_name": "TERRASAR-X",
        "meta_object_id": "2007-026A",
        "meta_epoch": "2025-12-15T11:38:35.503296",
        "meta_mean_motion": 15.19146195,
        "meta_eccentricity": 0.00016725,
        "meta_inclination": 97.4453,
        "meta_ra_of_asc_node": 354.825,
        "meta_arg_of_pericenter": 86.3192,
        "meta_mean_anomaly": 273.8234,
        "meta_ephemeris_type": 0,
        "meta_classification_type": "U",
        "meta_norad_cat_id": 31698,
        "meta_element_set_no": 999,
        "meta_rev_at_epoch": 2533,
        "meta_bstar": 7.6554338e-05,
        "meta_mean_motion_dot": 1.541e-05,
        "meta_mean_motion_ddot": 0,
        "tle_line1": "1 31698U 07026A   25349.48513314  .00001541  00000+0  76554-4 0  9995",
        "tle_line2": "2 31698  97.4453 354.8250 0001672  86.3192 273.8234 15.19146195 25337"
      },
      "geometry": {
        "type": "Point",
        "coordinates": [
          -24.991887567122678,
          70.05921280353816
        ]
      }
    },
    {
      "type": "Feature",
      "properties": {
        "norad_id": 32060,
        "name": "WORLDVIEW-1 (WV-1)",
        "group": "resource",
        "lat": 25.172735311930797,
        "lon": -68.26714082828352,
        "alt_km": 490.4415019866956,
        "timestamp": "2025-12-16T19:34:23.921546+00:00",
        "meta_object_name": "WORLDVIEW-1 (WV-1)",
        "meta_object_id": "2007-041A",
        "meta_epoch": "2025-12-15T14:32:50.082144",
        "meta_mean_motion": 15.24740329,
        "meta_eccentricity": 8.461e-05,
        "meta_inclination": 97.3836,
        "meta_ra_of_asc_node": 107.0465,
        "meta_arg_of_pericenter": 113.8111,
        "meta_mean_anomaly": 246.3216,
        "meta_ephemeris_type": 0,
        "meta_classification_type": "U",
        "meta_norad_cat_id": 32060,
        "meta_element_set_no": 999,
        "meta_rev_at_epoch": 1491,
        "meta_bstar": 0.00026564044,
        "meta_mean_motion_dot": 6.507e-05,
        "meta_mean_motion_ddot": 0,
        "tle_line1": "1 32060U 07041A   25349.60613521  .00006507  00000+0  26564-3 0  9993",
        "tle_line2": "2 32060  97.3836 107.0465 0000846 113.8111 246.3216 15.24740329 14912"
      },
      "geometry": {
        "type": "Point",
        "coordinates": [
          -68.26714082828352,
          25.172735311930797
        ]
      }
    },
    {
      "type": "Feature",
      "properties": {
        "norad_id": 32289,
        "name": "YAOGAN-3",
        "group": "resource",
        "lat": -16.123366442459638,
        "lon": -164.87763323147385,
        "alt_km": 603.678770147445,
        "timestamp": "2025-12-16T19:34:23.921556+00:00",
        "meta_object_name": "YAOGAN-3",
        "meta_object_id": "2007-055A",
        "meta_epoch": "2025-12-15T23:21:12.132576",
        "meta_mean_motion": 14.89877126,
        "meta_eccentricity": 0.00013616,
        "meta_inclination": 97.8371,
        "meta_ra_of_asc_node": 16.5693,
        "meta_arg_of_pericenter": 77.1788,
        "meta_mean_anomaly": 282.9581,
        "meta_ephemeris_type": 0,
        "meta_classification_type": "U",
        "meta_norad_cat_id": 32289,
        "meta_element_set_no": 999,
        "meta_rev_at_epoch": 97857,
        "meta_bstar": 0.00024221012,
        "meta_mean_motion_dot": 2.273e-05,
        "meta_mean_motion_ddot": 0,
        "tle_line1": "1 32289U 07055A   25349.97305709  .00002273  00000+0  24221-3 0  9991",
        "tle_line2": "2 32289  97.8371  16.5693 0001361  77.1788 282.9581 14.89877126978574"
      },
      "geometry": {
        "type": "Point",
        "coordinates": [
          -164.87763323147385,
          -16.123366442459638
        ]
      }
    }
  ]
}